{"type":"FeatureCollection","total":56,"features":[{"type":"Feature","id":"5Jpos6Tl-wmY5TWup7b19","geometry":{"type":"Point","coordinates":[2.875676,47.508946]},"properties":{"perimetre_spatial":"France métropolitaine, sans la Corse ni les iles du ponant","departement":"CHER","unite":"MW","fuel":"Enriched Uranium","commune":"Belleville-sur-Loire","filiere":"Nucléaire","contrat_programme":"P'4","spatial_perimeter":"Metropolitan France, excluding Corsica and the Ponant Islands","puissance_installee":1310,"code_insee_epci":"200069227","sector":"Nuclear","puissance_minimum_de_conception":260,"perimetre_juridique":"EDF SA","code_insee_region":"24","centrale":"BELLEVILLE","date_de_mise_en_service_industrielle":"1988-06-01","sub_sector":"Pressurised water reactor 1300","tri":1,"_i":1,"combustible":"Uranium Enrichi","reserve_secondaire_maximale":60,"tranche":"BELLEVILLE 1","sous_filiere":"Réacteur à eau pressurisée (REP) 1300","code_insee_commune":"18026","_rand":562455,"point_gps_wsg84":"47.508946, 2.875676","region":"CENTRE-VAL DE LOIRE","code_insee_departement":"18","epci":"CC Pays Fort Sancerrois Val de Loire","_id":"5Jpos6Tl-wmY5TWup7b19"}},{"type":"Feature","id":"2qiFAlNQSxFWDbC8QnXUu","geometry":{"type":"Point","coordinates":[2.875676,47.508946]},"properties":{"perimetre_spatial":"France métropolitaine, sans la Corse ni les iles du ponant","departement":"CHER","unite":"MW","fuel":"Enriched Uranium","commune":"Belleville-sur-Loire","filiere":"Nucléaire","contrat_programme":"P'4","spatial_perimeter":"Metropolitan France, excluding Corsica and the Ponant Islands","puissance_installee":1310,"code_insee_epci":"200069227","sector":"Nuclear","puissance_minimum_de_conception":260,"perimetre_juridique":"EDF SA","code_insee_region":"24","centrale":"BELLEVILLE","date_de_mise_en_service_industrielle":"1989-01-01","sub_sector":"Pressurised water reactor 1300","tri":2,"_i":2,"combustible":"Uranium Enrichi","reserve_secondaire_maximale":60,"tranche":"BELLEVILLE 2","sous_filiere":"Réacteur à eau pressurisée (REP) 1300","code_insee_commune":"18026","_rand":988035,"point_gps_wsg84":"47.508946, 2.875676","region":"CENTRE-VAL DE LOIRE","code_insee_departement":"18","epci":"CC Pays Fort Sancerrois Val de Loire","_id":"2qiFAlNQSxFWDbC8QnXUu"}},{"type":"Feature","id":"dJctRNm2IBnVAKwWObc6_","geometry":{"type":"Point","coordinates":[-0.690606,45.257605]},"properties":{"perimetre_spatial":"France métropolitaine, sans la Corse ni les iles du ponant","departement":"GIRONDE","unite":"MW","fuel":"Multi-oxide of uranium and plutonium","commune":"Braud-et-Saint-Louis","filiere":"Nucléaire","contrat_programme":"CP1","spatial_perimeter":"Metropolitan France, excluding Corsica and the Ponant Islands","puissance_installee":910,"code_insee_epci":"243300811","sector":"Nuclear","puissance_minimum_de_conception":180,"perimetre_juridique":"EDF SA","code_insee_region":"75","centrale":"BLAYAIS (LE)","date_de_mise_en_service_industrielle":"1981-12-01","sub_sector":"Pressurised water reactor 900","tri":3,"_i":3,"combustible":"Multi-oxyde d’uranium et de plutonium","reserve_secondaire_maximale":40,"tranche":"BLAYAIS 1","sous_filiere":"Réacteur à eau pressurisée (REP) 900","code_insee_commune":"33073","_rand":269432,"point_gps_wsg84":"45.257605, -0.690606","region":"NOUVELLE-AQUITAINE","code_insee_departement":"33","epci":"CC de l'Estuaire","_id":"dJctRNm2IBnVAKwWObc6_"}},{"type":"Feature","id":"Aq6M7gc0h5FxMYVpwU1Cj","geometry":{"type":"Point","coordinates":[-0.690606,45.257605]},"properties":{"perimetre_spatial":"France métropolitaine, sans la Corse ni les iles du ponant","departement":"GIRONDE","unite":"MW","fuel":"Multi-oxide of uranium and plutonium","commune":"Braud-et-Saint-Louis","filiere":"Nucléaire","contrat_programme":"CP1","spatial_perimeter":"Metropolitan France, excluding Corsica and the Ponant Islands","puissance_installee":910,"code_insee_epci":"243300811","sector":"Nuclear","puissance_minimum_de_conception":180,"perimetre_juridique":"EDF SA","code_insee_region":"75","centrale":"BLAYAIS (LE)","date_de_mise_en_service_industrielle":"1983-02-01","sub_sector":"Pressurised water reactor 900","tri":4,"_i":4,"combustible":"Multi-oxyde d’uranium et de plutonium","reserve_secondaire_maximale":40,"tranche":"BLAYAIS 2","sous_filiere":"Réacteur à eau pressurisée (REP) 900","code_insee_commune":"33073","_rand":155849,"point_gps_wsg84":"45.257605, -0.690606","region":"NOUVELLE-AQUITAINE","code_insee_departement":"33","epci":"CC de l'Estuaire","_id":"Aq6M7gc0h5FxMYVpwU1Cj"}},{"type":"Feature","id":"mxQNl3GX9FpB1_8J_hxeH","geometry":{"type":"Point","coordinates":[-0.690606,45.257605]},"properties":{"perimetre_spatial":"France métropolitaine, sans la Corse ni les iles du ponant","departement":"GIRONDE","unite":"MW","fuel":"Enriched Uranium","commune":"Braud-et-Saint-Louis","filiere":"Nucléaire","contrat_programme":"CP1","spatial_perimeter":"Metropolitan France, excluding Corsica and the Ponant Islands","puissance_installee":910,"code_insee_epci":"243300811","sector":"Nuclear","puissance_minimum_de_conception":180,"perimetre_juridique":"EDF SA","code_insee_region":"75","centrale":"BLAYAIS (LE)","date_de_mise_en_service_industrielle":"1983-11-14","sub_sector":"Pressurised water reactor 900","tri":5,"_i":5,"combustible":"Uranium Enrichi","reserve_secondaire_maximale":40,"tranche":"BLAYAIS 3","sous_filiere":"Réacteur à eau pressurisée (REP) 900","code_insee_commune":"33073","_rand":958960,"point_gps_wsg84":"45.257605, -0.690606","region":"NOUVELLE-AQUITAINE","code_insee_departement":"33","epci":"CC de l'Estuaire","_id":"mxQNl3GX9FpB1_8J_hxeH"}},{"type":"Feature","id":"Y2oTfV2n4F6_k1sQkrRrY","geometry":{"type":"Point","coordinates":[-0.690606,45.257605]},"properties":{"perimetre_spatial":"France métropolitaine, sans la Corse ni les iles du ponant","departement":"GIRONDE","unite":"MW","fuel":"Enriched Uranium","commune":"Braud-et-Saint-Louis","filiere":"Nucléaire","contrat_programme":"CP1","spatial_perimeter":"Metropolitan France, excluding Corsica and the Ponant Islands","puissance_installee":910,"code_insee_epci":"243300811","sector":"Nuclear","puissance_minimum_de_conception":180,"perimetre_juridique":"EDF SA","code_insee_region":"75","centrale":"BLAYAIS (LE)","date_de_mise_en_service_industrielle":"1983-10-01","sub_sector":"Pressurised water reactor 900","tri":6,"_i":6,"combustible":"Uranium Enrichi","reserve_secondaire_maximale":40,"tranche":"BLAYAIS 4","sous_filiere":"Réacteur à eau pressurisée (REP) 900","code_insee_commune":"33073","_rand":577765,"point_gps_wsg84":"45.257605, -0.690606","region":"NOUVELLE-AQUITAINE","code_insee_departement":"33","epci":"CC de l'Estuaire","_id":"Y2oTfV2n4F6_k1sQkrRrY"}},{"type":"Feature","id":"jw-rp25uRMNDKiynD__5-","geometry":{"type":"Point","coordinates":[5.266072,45.801148]},"properties":{"perimetre_spatial":"France métropolitaine, sans la Corse ni les iles du ponant","departement":"AIN","unite":"MW","fuel":"Enriched Uranium","commune":"Saint-Vulbas","filiere":"Nucléaire","contrat_programme":"CP0","spatial_perimeter":"Metropolitan France, excluding Corsica and the Ponant Islands","puissance_installee":910,"code_insee_epci":"240100883","sector":"Nuclear","puissance_minimum_de_conception":180,"perimetre_juridique":"EDF SA","code_insee_region":"84","centrale":"BUGEY (LE)","date_de_mise_en_service_industrielle":"1979-03-01","sub_sector":"Pressurised water reactor 900","tri":7,"_i":7,"combustible":"Uranium Enrichi","reserve_secondaire_maximale":25,"tranche":"BUGEY 2","sous_filiere":"Réacteur à eau pressurisée (REP) 900","code_insee_commune":"1390","_rand":534529,"point_gps_wsg84":"45.801148, 5.266072","region":"AUVERGNE-RHONE-ALPES","code_insee_departement":"1","epci":"CC de la Plaine de l'Ain","_id":"jw-rp25uRMNDKiynD__5-"}},{"type":"Feature","id":"eLFnK_8JBotdv4pSrdK-R","geometry":{"type":"Point","coordinates":[5.266072,45.801148]},"properties":{"perimetre_spatial":"France métropolitaine, sans la Corse ni les iles du ponant","departement":"AIN","unite":"MW","fuel":"Enriched Uranium","commune":"Saint-Vulbas","filiere":"Nucléaire","contrat_programme":"CP0","spatial_perimeter":"Metropolitan France, excluding Corsica and the Ponant Islands","puissance_installee":910,"code_insee_epci":"240100883","sector":"Nuclear","puissance_minimum_de_conception":180,"perimetre_juridique":"EDF SA","code_insee_region":"84","centrale":"BUGEY (LE)","date_de_mise_en_service_industrielle":"1979-03-01","sub_sector":"Pressurised water reactor 900","tri":8,"_i":8,"combustible":"Uranium Enrichi","reserve_secondaire_maximale":25,"tranche":"BUGEY 3","sous_filiere":"Réacteur à eau pressurisée (REP) 900","code_insee_commune":"1390","_rand":284817,"point_gps_wsg84":"45.801148, 5.266072","region":"AUVERGNE-RHONE-ALPES","code_insee_departement":"1","epci":"CC de la Plaine de l'Ain","_id":"eLFnK_8JBotdv4pSrdK-R"}},{"type":"Feature","id":"2emY0Enbmlo9hlZXI9_79","geometry":{"type":"Point","coordinates":[5.266072,45.801148]},"properties":{"perimetre_spatial":"France métropolitaine, sans la Corse ni les iles du ponant","departement":"AIN","unite":"MW","fuel":"Enriched Uranium","commune":"Saint-Vulbas","filiere":"Nucléaire","contrat_programme":"CP0","spatial_perimeter":"Metropolitan France, excluding Corsica and the Ponant Islands","puissance_installee":880,"code_insee_epci":"240100883","sector":"Nuclear","puissance_minimum_de_conception":180,"perimetre_juridique":"EDF SA","code_insee_region":"84","centrale":"BUGEY (LE)","date_de_mise_en_service_industrielle":"1979-07-01","sub_sector":"Pressurised water reactor 900","tri":9,"_i":9,"combustible":"Uranium Enrichi","reserve_secondaire_maximale":25,"tranche":"BUGEY 4","sous_filiere":"Réacteur à eau pressurisée (REP) 900","code_insee_commune":"1390","_rand":286793,"point_gps_wsg84":"45.801148, 5.266072","region":"AUVERGNE-RHONE-ALPES","code_insee_departement":"1","epci":"CC de la Plaine de l'Ain","_id":"2emY0Enbmlo9hlZXI9_79"}},{"type":"Feature","id":"CtOdWW6zYyxaJWbOhF12b","geometry":{"type":"Point","coordinates":[5.266072,45.801148]},"properties":{"perimetre_spatial":"France métropolitaine, sans la Corse ni les iles du ponant","departement":"AIN","unite":"MW","fuel":"Enriched Uranium","commune":"Saint-Vulbas","filiere":"Nucléaire","contrat_programme":"CP0","spatial_perimeter":"Metropolitan France, excluding Corsica and the Ponant Islands","puissance_installee":880,"code_insee_epci":"240100883","sector":"Nuclear","puissance_minimum_de_conception":180,"perimetre_juridique":"EDF SA","code_insee_region":"84","centrale":"BUGEY (LE)","date_de_mise_en_service_industrielle":"1980-01-03","sub_sector":"Pressurised water reactor 900","tri":10,"_i":10,"combustible":"Uranium Enrichi","reserve_secondaire_maximale":25,"tranche":"BUGEY 5","sous_filiere":"Réacteur à eau pressurisée (REP) 900","code_insee_commune":"1390","_rand":15292,"point_gps_wsg84":"45.801148, 5.266072","region":"AUVERGNE-RHONE-ALPES","code_insee_departement":"1","epci":"CC de la Plaine de l'Ain","_id":"CtOdWW6zYyxaJWbOhF12b"}},{"type":"Feature","id":"vIEcCD6lPemIrOZm0aAAz","geometry":{"type":"Point","coordinates":[6.218271,49.415953]},"properties":{"perimetre_spatial":"France métropolitaine, sans la Corse ni les iles du ponant","departement":"MOSELLE","unite":"MW","fuel":"Enriched Uranium","commune":"Cattenom","filiere":"Nucléaire","contrat_programme":"P'4","spatial_perimeter":"Metropolitan France, excluding Corsica and the Ponant Islands","puissance_installee":1300,"code_insee_epci":"245700695","sector":"Nuclear","puissance_minimum_de_conception":260,"perimetre_juridique":"EDF SA","code_insee_region":"44","centrale":"CATTENOM","date_de_mise_en_service_industrielle":"1987-04-01","sub_sector":"Pressurised water reactor 1300","tri":11,"_i":11,"combustible":"Uranium Enrichi","reserve_secondaire_maximale":60,"tranche":"CATTENOM 1","sous_filiere":"Réacteur à eau pressurisée (REP) 1300","code_insee_commune":"57124","_rand":402941,"point_gps_wsg84":"49.415953, 6.218271","region":"GRAND EST","code_insee_departement":"57","epci":"CC de Cattenom et Environs","_id":"vIEcCD6lPemIrOZm0aAAz"}},{"type":"Feature","id":"8AaD54McVftjeGICDJrnO","geometry":{"type":"Point","coordinates":[6.218271,49.415953]},"properties":{"perimetre_spatial":"France métropolitaine, sans la Corse ni les iles du ponant","departement":"MOSELLE","unite":"MW","fuel":"Enriched Uranium","commune":"Cattenom","filiere":"Nucléaire","contrat_programme":"P'4","spatial_perimeter":"Metropolitan France, excluding Corsica and the Ponant Islands","puissance_installee":1300,"code_insee_epci":"245700695","sector":"Nuclear","puissance_minimum_de_conception":260,"perimetre_juridique":"EDF SA","code_insee_region":"44","centrale":"CATTENOM","date_de_mise_en_service_industrielle":"1988-02-01","sub_sector":"Pressurised water reactor 1300","tri":12,"_i":12,"combustible":"Uranium Enrichi","reserve_secondaire_maximale":60,"tranche":"CATTENOM 2","sous_filiere":"Réacteur à eau pressurisée (REP) 1300","code_insee_commune":"57124","_rand":656823,"point_gps_wsg84":"49.415953, 6.218271","region":"GRAND EST","code_insee_departement":"57","epci":"CC de Cattenom et Environs","_id":"8AaD54McVftjeGICDJrnO"}},{"type":"Feature","id":"_SP-SpjpZMoQrM87xILLp","geometry":{"type":"Point","coordinates":[6.218271,49.415953]},"properties":{"perimetre_spatial":"France métropolitaine, sans la Corse ni les iles du ponant","departement":"MOSELLE","unite":"MW","fuel":"Enriched Uranium","commune":"Cattenom","filiere":"Nucléaire","contrat_programme":"P'4","spatial_perimeter":"Metropolitan France, excluding Corsica and the Ponant Islands","puissance_installee":1300,"code_insee_epci":"245700695","sector":"Nuclear","puissance_minimum_de_conception":260,"perimetre_juridique":"EDF SA","code_insee_region":"44","centrale":"CATTENOM","date_de_mise_en_service_industrielle":"1991-02-01","sub_sector":"Pressurised water reactor 1300","tri":13,"_i":13,"combustible":"Uranium Enrichi","reserve_secondaire_maximale":60,"tranche":"CATTENOM 3","sous_filiere":"Réacteur à eau pressurisée (REP) 1300","code_insee_commune":"57124","_rand":223207,"point_gps_wsg84":"49.415953, 6.218271","region":"GRAND EST","code_insee_departement":"57","epci":"CC de Cattenom et Environs","_id":"_SP-SpjpZMoQrM87xILLp"}},{"type":"Feature","id":"s9cdxcHwnnhhEv6oLQDWr","geometry":{"type":"Point","coordinates":[6.218271,49.415953]},"properties":{"perimetre_spatial":"France métropolitaine, sans la Corse ni les iles du ponant","departement":"MOSELLE","unite":"MW","fuel":"Enriched Uranium","commune":"Cattenom","filiere":"Nucléaire","contrat_programme":"P'4","spatial_perimeter":"Metropolitan France, excluding Corsica and the Ponant Islands","puissance_installee":1300,"code_insee_epci":"245700695","sector":"Nuclear","puissance_minimum_de_conception":260,"perimetre_juridique":"EDF SA","code_insee_region":"44","centrale":"CATTENOM","date_de_mise_en_service_industrielle":"1992-01-01","sub_sector":"Pressurised water reactor 1300","tri":14,"_i":14,"combustible":"Uranium Enrichi","reserve_secondaire_maximale":60,"tranche":"CATTENOM 4","sous_filiere":"Réacteur à eau pressurisée (REP) 1300","code_insee_commune":"57124","_rand":143536,"point_gps_wsg84":"49.415953, 6.218271","region":"GRAND EST","code_insee_departement":"57","epci":"CC de Cattenom et Environs","_id":"s9cdxcHwnnhhEv6oLQDWr"}},{"type":"Feature","id":"aY0FwJW0n_rIi0A0pJ6EX","geometry":{"type":"Point","coordinates":[0.168307,47.228727]},"properties":{"perimetre_spatial":"France métropolitaine, sans la Corse ni les iles du ponant","departement":"INDRE-ET-LOIRE","unite":"MW","fuel":"Multi-oxide of uranium and plutonium","commune":"Avoine","filiere":"Nucléaire","contrat_programme":"CP2","spatial_perimeter":"Metropolitan France, excluding Corsica and the Ponant Islands","puissance_installee":905,"code_insee_epci":"200043081","sector":"Nuclear","puissance_minimum_de_conception":180,"perimetre_juridique":"EDF SA","code_insee_region":"24","centrale":"CHINON B","date_de_mise_en_service_industrielle":"1984-02-01","sub_sector":"Pressurised water reactor 900","tri":15,"_i":15,"combustible":"Multi-oxyde d’uranium et de plutonium","reserve_secondaire_maximale":40,"tranche":"CHINON B 1","sous_filiere":"Réacteur à eau pressurisée (REP) 900","code_insee_commune":"37011","_rand":949896,"point_gps_wsg84":"47.228727, 0.168307","region":"CENTRE-VAL DE LOIRE","code_insee_departement":"37","epci":"CC Chinon, Vienne et Loire","_id":"aY0FwJW0n_rIi0A0pJ6EX"}},{"type":"Feature","id":"6Fldum5fKwCKqfJpzB4Un","geometry":{"type":"Point","coordinates":[0.168307,47.228727]},"properties":{"perimetre_spatial":"France métropolitaine, sans la Corse ni les iles du ponant","departement":"INDRE-ET-LOIRE","unite":"MW","fuel":"Multi-oxide of uranium and plutonium","commune":"Avoine","filiere":"Nucléaire","contrat_programme":"CP2","spatial_perimeter":"Metropolitan France, excluding Corsica and the Ponant Islands","puissance_installee":905,"code_insee_epci":"200043081","sector":"Nuclear","puissance_minimum_de_conception":180,"perimetre_juridique":"EDF SA","code_insee_region":"24","centrale":"CHINON B","date_de_mise_en_service_industrielle":"1984-08-01","sub_sector":"Pressurised water reactor 900","tri":16,"_i":16,"combustible":"Multi-oxyde d’uranium et de plutonium","reserve_secondaire_maximale":40,"tranche":"CHINON B 2","sous_filiere":"Réacteur à eau pressurisée (REP) 900","code_insee_commune":"37011","_rand":590411,"point_gps_wsg84":"47.228727, 0.168307","region":"CENTRE-VAL DE LOIRE","code_insee_departement":"37","epci":"CC Chinon, Vienne et Loire","_id":"6Fldum5fKwCKqfJpzB4Un"}},{"type":"Feature","id":"Qmw6B-Vj9y2QMEMIEshTa","geometry":{"type":"Point","coordinates":[0.168307,47.228727]},"properties":{"perimetre_spatial":"France métropolitaine, sans la Corse ni les iles du ponant","departement":"INDRE-ET-LOIRE","unite":"MW","fuel":"Multi-oxide of uranium and plutonium","commune":"Avoine","filiere":"Nucléaire","contrat_programme":"CP2","spatial_perimeter":"Metropolitan France, excluding Corsica and the Ponant Islands","puissance_installee":905,"code_insee_epci":"200043081","sector":"Nuclear","puissance_minimum_de_conception":180,"perimetre_juridique":"EDF SA","code_insee_region":"24","centrale":"CHINON B","date_de_mise_en_service_industrielle":"1987-03-04","sub_sector":"Pressurised water reactor 900","tri":17,"_i":17,"combustible":"Multi-oxyde d’uranium et de plutonium","reserve_secondaire_maximale":40,"tranche":"CHINON B 3","sous_filiere":"Réacteur à eau pressurisée (REP) 900","code_insee_commune":"37011","_rand":91674,"point_gps_wsg84":"47.228727, 0.168307","region":"CENTRE-VAL DE LOIRE","code_insee_departement":"37","epci":"CC Chinon, Vienne et Loire","_id":"Qmw6B-Vj9y2QMEMIEshTa"}},{"type":"Feature","id":"LzQs38pXBTnV5gwnIIt9p","geometry":{"type":"Point","coordinates":[0.168307,47.228727]},"properties":{"perimetre_spatial":"France métropolitaine, sans la Corse ni les iles du ponant","departement":"INDRE-ET-LOIRE","unite":"MW","fuel":"Multi-oxide of uranium and plutonium","commune":"Avoine","filiere":"Nucléaire","contrat_programme":"CP2","spatial_perimeter":"Metropolitan France, excluding Corsica and the Ponant Islands","puissance_installee":905,"code_insee_epci":"200043081","sector":"Nuclear","puissance_minimum_de_conception":180,"perimetre_juridique":"EDF SA","code_insee_region":"24","centrale":"CHINON B","date_de_mise_en_service_industrielle":"1988-04-01","sub_sector":"Pressurised water reactor 900","tri":18,"_i":18,"combustible":"Multi-oxyde d’uranium et de plutonium","reserve_secondaire_maximale":40,"tranche":"CHINON B 4","sous_filiere":"Réacteur à eau pressurisée (REP) 900","code_insee_commune":"37011","_rand":564456,"point_gps_wsg84":"47.228727, 0.168307","region":"CENTRE-VAL DE LOIRE","code_insee_departement":"37","epci":"CC Chinon, Vienne et Loire","_id":"LzQs38pXBTnV5gwnIIt9p"}},{"type":"Feature","id":"K8vMo2N7lxNueKokgkYq1","geometry":{"type":"Point","coordinates":[4.789588,50.090344]},"properties":{"perimetre_spatial":"France métropolitaine, sans la Corse ni les iles du ponant","departement":"ARDENNES","unite":"MW","fuel":"Enriched Uranium","commune":"Chooz","filiere":"Nucléaire","contrat_programme":"N4","spatial_perimeter":"Metropolitan France, excluding Corsica and the Ponant Islands","puissance_installee":1500,"code_insee_epci":"240800821","sector":"Nuclear","puissance_minimum_de_conception":370,"perimetre_juridique":"EDF SA","code_insee_region":"44","centrale":"CHOOZ B","date_de_mise_en_service_industrielle":"2000-05-15","sub_sector":"Pressurised water reactor 1450","tri":19,"_i":19,"combustible":"Uranium Enrichi","reserve_secondaire_maximale":30,"tranche":"CHOOZ B 1","sous_filiere":"Réacteur à eau pressurisée (REP) 1450","code_insee_commune":"8122","_rand":755586,"point_gps_wsg84":"50.090344, 4.789588","region":"GRAND EST","code_insee_departement":"8","epci":"CC Ardenne, Rives de Meuse","_id":"K8vMo2N7lxNueKokgkYq1"}},{"type":"Feature","id":"6tNPsu4MpMdmtHNAb0BMc","geometry":{"type":"Point","coordinates":[4.789588,50.090344]},"properties":{"perimetre_spatial":"France métropolitaine, sans la Corse ni les iles du ponant","departement":"ARDENNES","unite":"MW","fuel":"Enriched Uranium","commune":"Chooz","filiere":"Nucléaire","contrat_programme":"N4","spatial_perimeter":"Metropolitan France, excluding Corsica and the Ponant Islands","puissance_installee":1500,"code_insee_epci":"240800821","sector":"Nuclear","puissance_minimum_de_conception":370,"perimetre_juridique":"EDF SA","code_insee_region":"44","centrale":"CHOOZ B","date_de_mise_en_service_industrielle":"2000-09-29","sub_sector":"Pressurised water reactor 1450","tri":20,"_i":20,"combustible":"Uranium Enrichi","reserve_secondaire_maximale":30,"tranche":"CHOOZ B 2","sous_filiere":"Réacteur à eau pressurisée (REP) 1450","code_insee_commune":"8122","_rand":487359,"point_gps_wsg84":"50.090344, 4.789588","region":"GRAND EST","code_insee_departement":"8","epci":"CC Ardenne, Rives de Meuse","_id":"6tNPsu4MpMdmtHNAb0BMc"}},{"type":"Feature","id":"QBsRMQl-Et7hc7PsElEGP","geometry":{"type":"Point","coordinates":[0.648879,46.46218]},"properties":{"perimetre_spatial":"France métropolitaine, sans la Corse ni les iles du ponant","departement":"VIENNE","unite":"MW","fuel":"Enriched Uranium","commune":"Civaux","filiere":"Nucléaire","contrat_programme":"N4","spatial_perimeter":"Metropolitan France, excluding Corsica and the Ponant Islands","puissance_installee":1495,"code_insee_epci":"200070043","sector":"Nuclear","puissance_minimum_de_conception":370,"perimetre_juridique":"EDF SA","code_insee_region":"75","centrale":"CIVAUX","date_de_mise_en_service_industrielle":"2002-01-29","sub_sector":"Pressurised water reactor 1450","tri":21,"_i":21,"combustible":"Uranium Enrichi","reserve_secondaire_maximale":30,"tranche":"CIVAUX 1","sous_filiere":"Réacteur à eau pressurisée (REP) 1450","code_insee_commune":"86077","_rand":105351,"point_gps_wsg84":"46.46218, 0.648879","region":"NOUVELLE-AQUITAINE","code_insee_departement":"86","epci":"CC Vienne et Gartempe","_id":"QBsRMQl-Et7hc7PsElEGP"}},{"type":"Feature","id":"5PksEMVt9CCdO7fBMVMnh","geometry":{"type":"Point","coordinates":[0.648879,46.46218]},"properties":{"perimetre_spatial":"France métropolitaine, sans la Corse ni les iles du ponant","departement":"VIENNE","unite":"MW","fuel":"Enriched Uranium","commune":"Civaux","filiere":"Nucléaire","contrat_programme":"N4","spatial_perimeter":"Metropolitan France, excluding Corsica and the Ponant Islands","puissance_installee":1495,"code_insee_epci":"200070043","sector":"Nuclear","puissance_minimum_de_conception":370,"perimetre_juridique":"EDF SA","code_insee_region":"75","centrale":"CIVAUX","date_de_mise_en_service_industrielle":"2002-04-23","sub_sector":"Pressurised water reactor 1450","tri":22,"_i":22,"combustible":"Uranium Enrichi","reserve_secondaire_maximale":30,"tranche":"CIVAUX 2","sous_filiere":"Réacteur à eau pressurisée (REP) 1450","code_insee_commune":"86077","_rand":323134,"point_gps_wsg84":"46.46218, 0.648879","region":"NOUVELLE-AQUITAINE","code_insee_departement":"86","epci":"CC Vienne et Gartempe","_id":"5PksEMVt9CCdO7fBMVMnh"}},{"type":"Feature","id":"kvsEBPnRSd43dxQhepjs4","geometry":{"type":"Point","coordinates":[4.750824,44.63283]},"properties":{"perimetre_spatial":"France métropolitaine, sans la Corse ni les iles du ponant","departement":"ARDECHE","unite":"MW","fuel":"Enriched Uranium","commune":"Cruas","filiere":"Nucléaire","contrat_programme":"CP2","spatial_perimeter":"Metropolitan France, excluding Corsica and the Ponant Islands","puissance_installee":915,"code_insee_epci":"200071405","sector":"Nuclear","puissance_minimum_de_conception":180,"perimetre_juridique":"EDF SA","code_insee_region":"84","centrale":"CRUAS","date_de_mise_en_service_industrielle":"1984-04-02","sub_sector":"Pressurised water reactor 900","tri":23,"_i":23,"combustible":"Uranium Enrichi","reserve_secondaire_maximale":40,"tranche":"CRUAS 1","sous_filiere":"Réacteur à eau pressurisée (REP) 900","code_insee_commune":"7076","_rand":461152,"point_gps_wsg84":"44.63283, 4.750824","region":"AUVERGNE-RHONE-ALPES","code_insee_departement":"7","epci":"CC Ardèche Rhône Coiron","_id":"kvsEBPnRSd43dxQhepjs4"}},{"type":"Feature","id":"Zw1sNmRGgNbB7JRCRltuc","geometry":{"type":"Point","coordinates":[4.750824,44.63283]},"properties":{"perimetre_spatial":"France métropolitaine, sans la Corse ni les iles du ponant","departement":"ARDECHE","unite":"MW","fuel":"Enriched Uranium","commune":"Cruas","filiere":"Nucléaire","contrat_programme":"CP2","spatial_perimeter":"Metropolitan France, excluding Corsica and the Ponant Islands","puissance_installee":915,"code_insee_epci":"200071405","sector":"Nuclear","puissance_minimum_de_conception":180,"perimetre_juridique":"EDF SA","code_insee_region":"84","centrale":"CRUAS","date_de_mise_en_service_industrielle":"1985-04-01","sub_sector":"Pressurised water reactor 900","tri":24,"_i":24,"combustible":"Uranium Enrichi","reserve_secondaire_maximale":40,"tranche":"CRUAS 2","sous_filiere":"Réacteur à eau pressurisée (REP) 900","code_insee_commune":"7076","_rand":261963,"point_gps_wsg84":"44.63283, 4.750824","region":"AUVERGNE-RHONE-ALPES","code_insee_departement":"7","epci":"CC Ardèche Rhône Coiron","_id":"Zw1sNmRGgNbB7JRCRltuc"}},{"type":"Feature","id":"OSasQtPsdT2E4OBYmqKgI","geometry":{"type":"Point","coordinates":[4.750824,44.63283]},"properties":{"perimetre_spatial":"France métropolitaine, sans la Corse ni les iles du ponant","departement":"ARDECHE","unite":"MW","fuel":"Enriched Uranium","commune":"Cruas","filiere":"Nucléaire","contrat_programme":"CP2","spatial_perimeter":"Metropolitan France, excluding Corsica and the Ponant Islands","puissance_installee":915,"code_insee_epci":"200071405","sector":"Nuclear","puissance_minimum_de_conception":180,"perimetre_juridique":"EDF SA","code_insee_region":"84","centrale":"CRUAS","date_de_mise_en_service_industrielle":"1984-09-10","sub_sector":"Pressurised water reactor 900","tri":25,"_i":25,"combustible":"Uranium Enrichi","reserve_secondaire_maximale":40,"tranche":"CRUAS 3","sous_filiere":"Réacteur à eau pressurisée (REP) 900","code_insee_commune":"7076","_rand":662035,"point_gps_wsg84":"44.63283, 4.750824","region":"AUVERGNE-RHONE-ALPES","code_insee_departement":"7","epci":"CC Ardèche Rhône Coiron","_id":"OSasQtPsdT2E4OBYmqKgI"}},{"type":"Feature","id":"4HPOH5QGXw-oqQ9tq71Pq","geometry":{"type":"Point","coordinates":[4.750824,44.63283]},"properties":{"perimetre_spatial":"France métropolitaine, sans la Corse ni les iles du ponant","departement":"ARDECHE","unite":"MW","fuel":"Enriched Uranium","commune":"Cruas","filiere":"Nucléaire","contrat_programme":"CP2","spatial_perimeter":"Metropolitan France, excluding Corsica and the Ponant Islands","puissance_installee":915,"code_insee_epci":"200071405","sector":"Nuclear","puissance_minimum_de_conception":180,"perimetre_juridique":"EDF SA","code_insee_region":"84","centrale":"CRUAS","date_de_mise_en_service_industrielle":"1985-02-11","sub_sector":"Pressurised water reactor 900","tri":26,"_i":26,"combustible":"Uranium Enrichi","reserve_secondaire_maximale":40,"tranche":"CRUAS 4","sous_filiere":"Réacteur à eau pressurisée (REP) 900","code_insee_commune":"7076","_rand":167035,"point_gps_wsg84":"44.63283, 4.750824","region":"AUVERGNE-RHONE-ALPES","code_insee_departement":"7","epci":"CC Ardèche Rhône Coiron","_id":"4HPOH5QGXw-oqQ9tq71Pq"}},{"type":"Feature","id":"uqx9xsuqOk98BEhaZFkfX","geometry":{"type":"Point","coordinates":[2.517824,47.732638]},"properties":{"perimetre_spatial":"France métropolitaine, sans la Corse ni les iles du ponant","departement":"LOIRET","unite":"MW","fuel":"Multi-oxide of uranium and plutonium","commune":"Dampierre-en-Burly","filiere":"Nucléaire","contrat_programme":"CP1","spatial_perimeter":"Metropolitan France, excluding Corsica and the Ponant Islands","puissance_installee":890,"code_insee_epci":"200070100","sector":"Nuclear","puissance_minimum_de_conception":180,"perimetre_juridique":"EDF SA","code_insee_region":"24","centrale":"DAMPIERRE-EN-BURLY","date_de_mise_en_service_industrielle":"1980-09-10","sub_sector":"Pressurised water reactor 900","tri":27,"_i":27,"combustible":"Multi-oxyde d’uranium et de plutonium","reserve_secondaire_maximale":40,"tranche":"DAMPIERRE 1","sous_filiere":"Réacteur à eau pressurisée (REP) 900","code_insee_commune":"45122","_rand":239896,"point_gps_wsg84":"47.732638, 2.517824","region":"CENTRE-VAL DE LOIRE","code_insee_departement":"45","epci":"CC du Val de Sully","_id":"uqx9xsuqOk98BEhaZFkfX"}},{"type":"Feature","id":"S9Ky9Hlg_OW6HPQDOtBAB","geometry":{"type":"Point","coordinates":[2.517824,47.732638]},"properties":{"perimetre_spatial":"France métropolitaine, sans la Corse ni les iles du ponant","departement":"LOIRET","unite":"MW","fuel":"Multi-oxide of uranium and plutonium","commune":"Dampierre-en-Burly","filiere":"Nucléaire","contrat_programme":"CP1","spatial_perimeter":"Metropolitan France, excluding Corsica and the Ponant Islands","puissance_installee":890,"code_insee_epci":"200070100","sector":"Nuclear","puissance_minimum_de_conception":180,"perimetre_juridique":"EDF SA","code_insee_region":"24","centrale":"DAMPIERRE-EN-BURLY","date_de_mise_en_service_industrielle":"1981-02-16","sub_sector":"Pressurised water reactor 900","tri":28,"_i":28,"combustible":"Multi-oxyde d’uranium et de plutonium","reserve_secondaire_maximale":40,"tranche":"DAMPIERRE 2","sous_filiere":"Réacteur à eau pressurisée (REP) 900","code_insee_commune":"45122","_rand":713642,"point_gps_wsg84":"47.732638, 2.517824","region":"CENTRE-VAL DE LOIRE","code_insee_departement":"45","epci":"CC du Val de Sully","_id":"S9Ky9Hlg_OW6HPQDOtBAB"}},{"type":"Feature","id":"7QuHYPjv5bD7Ag2OyZb6d","geometry":{"type":"Point","coordinates":[2.517824,47.732638]},"properties":{"perimetre_spatial":"France métropolitaine, sans la Corse ni les iles du ponant","departement":"LOIRET","unite":"MW","fuel":"Multi-oxide of uranium and plutonium","commune":"Dampierre-en-Burly","filiere":"Nucléaire","contrat_programme":"CP1","spatial_perimeter":"Metropolitan France, excluding Corsica and the Ponant Islands","puissance_installee":890,"code_insee_epci":"200070100","sector":"Nuclear","puissance_minimum_de_conception":180,"perimetre_juridique":"EDF SA","code_insee_region":"24","centrale":"DAMPIERRE-EN-BURLY","date_de_mise_en_service_industrielle":"1981-05-27","sub_sector":"Pressurised water reactor 900","tri":29,"_i":29,"combustible":"Multi-oxyde d’uranium et de plutonium","reserve_secondaire_maximale":40,"tranche":"DAMPIERRE 3","sous_filiere":"Réacteur à eau pressurisée (REP) 900","code_insee_commune":"45122","_rand":626124,"point_gps_wsg84":"47.732638, 2.517824","region":"CENTRE-VAL DE LOIRE","code_insee_departement":"45","epci":"CC du Val de Sully","_id":"7QuHYPjv5bD7Ag2OyZb6d"}},{"type":"Feature","id":"3ZnRL3N7dgLGHHjeQtU17","geometry":{"type":"Point","coordinates":[2.517824,47.732638]},"properties":{"perimetre_spatial":"France métropolitaine, sans la Corse ni les iles du ponant","departement":"LOIRET","unite":"MW","fuel":"Multi-oxide of uranium and plutonium","commune":"Dampierre-en-Burly","filiere":"Nucléaire","contrat_programme":"CP1","spatial_perimeter":"Metropolitan France, excluding Corsica and the Ponant Islands","puissance_installee":890,"code_insee_epci":"200070100","sector":"Nuclear","puissance_minimum_de_conception":180,"perimetre_juridique":"EDF SA","code_insee_region":"24","centrale":"DAMPIERRE-EN-BURLY","date_de_mise_en_service_industrielle":"1981-11-20","sub_sector":"Pressurised water reactor 900","tri":30,"_i":30,"combustible":"Multi-oxyde d’uranium et de plutonium","reserve_secondaire_maximale":40,"tranche":"DAMPIERRE 4","sous_filiere":"Réacteur à eau pressurisée (REP) 900","code_insee_commune":"45122","_rand":444378,"point_gps_wsg84":"47.732638, 2.517824","region":"CENTRE-VAL DE LOIRE","code_insee_departement":"45","epci":"CC du Val de Sully","_id":"3ZnRL3N7dgLGHHjeQtU17"}},{"type":"Feature","id":"sFbQulhc0gNLwS8ddN5x-","geometry":{"type":"Point","coordinates":[-1.883342,49.535986]},"properties":{"perimetre_spatial":"France métropolitaine, sans la Corse ni les iles du ponant","departement":"MANCHE","unite":"MW","fuel":"Enriched Uranium","commune":"Flamanville","filiere":"Nucléaire","contrat_programme":"H4","spatial_perimeter":"Metropolitan France, excluding Corsica and the Ponant Islands","puissance_installee":1330,"code_insee_epci":"200067205","sector":"Nuclear","puissance_minimum_de_conception":260,"perimetre_juridique":"EDF SA","code_insee_region":"28","centrale":"FLAMANVILLE","date_de_mise_en_service_industrielle":"1986-12-01","sub_sector":"Pressurised water reactor 1300","tri":31,"_i":31,"combustible":"Uranium Enrichi","reserve_secondaire_maximale":60,"tranche":"FLAMANVILLE 1","sous_filiere":"Réacteur à eau pressurisée (REP) 1300","code_insee_commune":"50184","_rand":301991,"point_gps_wsg84":"49.535986, -1.883342","region":"NORMANDIE","code_insee_departement":"50","epci":"CA du Cotentin","_id":"sFbQulhc0gNLwS8ddN5x-"}},{"type":"Feature","id":"frs9L_z1ijL0LDc7IEemA","geometry":{"type":"Point","coordinates":[-1.883342,49.535986]},"properties":{"perimetre_spatial":"France métropolitaine, sans la Corse ni les iles du ponant","departement":"MANCHE","unite":"MW","fuel":"Enriched Uranium","commune":"Flamanville","filiere":"Nucléaire","contrat_programme":"H4","spatial_perimeter":"Metropolitan France, excluding Corsica and the Ponant Islands","puissance_installee":1330,"code_insee_epci":"200067205","sector":"Nuclear","puissance_minimum_de_conception":260,"perimetre_juridique":"EDF SA","code_insee_region":"28","centrale":"FLAMANVILLE","date_de_mise_en_service_industrielle":"1987-03-09","sub_sector":"Pressurised water reactor 1300","tri":32,"_i":32,"combustible":"Uranium Enrichi","reserve_secondaire_maximale":60,"tranche":"FLAMANVILLE 2","sous_filiere":"Réacteur à eau pressurisée (REP) 1300","code_insee_commune":"50184","_rand":453518,"point_gps_wsg84":"49.535986, -1.883342","region":"NORMANDIE","code_insee_departement":"50","epci":"CA du Cotentin","_id":"frs9L_z1ijL0LDc7IEemA"}},{"type":"Feature","id":"a7tIa_0_hRPMAnWTyfl4w","geometry":{"type":"Point","coordinates":[0.84572,44.105751]},"properties":{"perimetre_spatial":"France métropolitaine, sans la Corse ni les iles du ponant","departement":"TARN-ET-GARONNE","unite":"MW","fuel":"Enriched Uranium","commune":"Golfech","filiere":"Nucléaire","contrat_programme":"P'4","spatial_perimeter":"Metropolitan France, excluding Corsica and the Ponant Islands","puissance_installee":1310,"code_insee_epci":"248200016","sector":"Nuclear","puissance_minimum_de_conception":260,"perimetre_juridique":"EDF SA","code_insee_region":"76","centrale":"GOLFECH","date_de_mise_en_service_industrielle":"1991-02-01","sub_sector":"Pressurised water reactor 1300","tri":33,"_i":33,"combustible":"Uranium Enrichi","reserve_secondaire_maximale":60,"tranche":"GOLFECH 1","sous_filiere":"Réacteur à eau pressurisée (REP) 1300","code_insee_commune":"82072","_rand":310276,"point_gps_wsg84":"44.105751, 0.84572","region":"OCCITANIE","code_insee_departement":"82","epci":"CC des Deux Rives","_id":"a7tIa_0_hRPMAnWTyfl4w"}},{"type":"Feature","id":"Niq4QwIA6AV3RMd09530-","geometry":{"type":"Point","coordinates":[0.84572,44.105751]},"properties":{"perimetre_spatial":"France métropolitaine, sans la Corse ni les iles du ponant","departement":"TARN-ET-GARONNE","unite":"MW","fuel":"Enriched Uranium","commune":"Golfech","filiere":"Nucléaire","contrat_programme":"P'4","spatial_perimeter":"Metropolitan France, excluding Corsica and the Ponant Islands","puissance_installee":1310,"code_insee_epci":"248200016","sector":"Nuclear","puissance_minimum_de_conception":260,"perimetre_juridique":"EDF SA","code_insee_region":"76","centrale":"GOLFECH","date_de_mise_en_service_industrielle":"1994-03-04","sub_sector":"Pressurised water reactor 1300","tri":34,"_i":34,"combustible":"Uranium Enrichi","reserve_secondaire_maximale":60,"tranche":"GOLFECH 2","sous_filiere":"Réacteur à eau pressurisée (REP) 1300","code_insee_commune":"82072","_rand":366304,"point_gps_wsg84":"44.105751, 0.84572","region":"OCCITANIE","code_insee_departement":"82","epci":"CC des Deux Rives","_id":"Niq4QwIA6AV3RMd09530-"}},{"type":"Feature","id":"hHG76jPmpPzJYbQHivhur","geometry":{"type":"Point","coordinates":[2.139287,51.012846]},"properties":{"perimetre_spatial":"France métropolitaine, sans la Corse ni les iles du ponant","departement":"NORD","unite":"MW","fuel":"Multi-oxide of uranium and plutonium","commune":"Gravelines","filiere":"Nucléaire","contrat_programme":"CP1","spatial_perimeter":"Metropolitan France, excluding Corsica and the Ponant Islands","puissance_installee":910,"code_insee_epci":"245900428","sector":"Nuclear","puissance_minimum_de_conception":180,"perimetre_juridique":"EDF SA","code_insee_region":"32","centrale":"GRAVELINES","date_de_mise_en_service_industrielle":"1980-11-25","sub_sector":"Pressurised water reactor 900","tri":35,"_i":35,"combustible":"Multi-oxyde d’uranium et de plutonium","reserve_secondaire_maximale":40,"tranche":"GRAVELINES 1","sous_filiere":"Réacteur à eau pressurisée (REP) 900","code_insee_commune":"59273","_rand":708164,"point_gps_wsg84":"51.012846, 2.139287","region":"HAUTS-DE-FRANCE","code_insee_departement":"59","epci":"CU de Dunkerque","_id":"hHG76jPmpPzJYbQHivhur"}},{"type":"Feature","id":"rtWJTPASbpBp3Jcf_UIs3","geometry":{"type":"Point","coordinates":[2.139287,51.012846]},"properties":{"perimetre_spatial":"France métropolitaine, sans la Corse ni les iles du ponant","departement":"NORD","unite":"MW","fuel":"Multi-oxide of uranium and plutonium","commune":"Gravelines","filiere":"Nucléaire","contrat_programme":"CP1","spatial_perimeter":"Metropolitan France, excluding Corsica and the Ponant Islands","puissance_installee":910,"code_insee_epci":"245900428","sector":"Nuclear","puissance_minimum_de_conception":180,"perimetre_juridique":"EDF SA","code_insee_region":"32","centrale":"GRAVELINES","date_de_mise_en_service_industrielle":"1980-12-01","sub_sector":"Pressurised water reactor 900","tri":36,"_i":36,"combustible":"Multi-oxyde d’uranium et de plutonium","reserve_secondaire_maximale":40,"tranche":"GRAVELINES 2","sous_filiere":"Réacteur à eau pressurisée (REP) 900","code_insee_commune":"59273","_rand":446754,"point_gps_wsg84":"51.012846, 2.139287","region":"HAUTS-DE-FRANCE","code_insee_departement":"59","epci":"CU de Dunkerque","_id":"rtWJTPASbpBp3Jcf_UIs3"}},{"type":"Feature","id":"sVwFRVTraFFak_3-idYKz","geometry":{"type":"Point","coordinates":[2.139287,51.012846]},"properties":{"perimetre_spatial":"France métropolitaine, sans la Corse ni les iles du ponant","departement":"NORD","unite":"MW","fuel":"Multi-oxide of uranium and plutonium","commune":"Gravelines","filiere":"Nucléaire","contrat_programme":"CP1","spatial_perimeter":"Metropolitan France, excluding Corsica and the Ponant Islands","puissance_installee":910,"code_insee_epci":"245900428","sector":"Nuclear","puissance_minimum_de_conception":180,"perimetre_juridique":"EDF SA","code_insee_region":"32","centrale":"GRAVELINES","date_de_mise_en_service_industrielle":"1981-06-01","sub_sector":"Pressurised water reactor 900","tri":37,"_i":37,"combustible":"Multi-oxyde d’uranium et de plutonium","reserve_secondaire_maximale":40,"tranche":"GRAVELINES 3","sous_filiere":"Réacteur à eau pressurisée (REP) 900","code_insee_commune":"59273","_rand":720066,"point_gps_wsg84":"51.012846, 2.139287","region":"HAUTS-DE-FRANCE","code_insee_departement":"59","epci":"CU de Dunkerque","_id":"sVwFRVTraFFak_3-idYKz"}},{"type":"Feature","id":"O0K9g7aLaWBubjdPRcE8_","geometry":{"type":"Point","coordinates":[2.139287,51.012846]},"properties":{"perimetre_spatial":"France métropolitaine, sans la Corse ni les iles du ponant","departement":"NORD","unite":"MW","fuel":"Multi-oxide of uranium and plutonium","commune":"Gravelines","filiere":"Nucléaire","contrat_programme":"CP1","spatial_perimeter":"Metropolitan France, excluding Corsica and the Ponant Islands","puissance_installee":910,"code_insee_epci":"245900428","sector":"Nuclear","puissance_minimum_de_conception":180,"perimetre_juridique":"EDF SA","code_insee_region":"32","centrale":"GRAVELINES","date_de_mise_en_service_industrielle":"1981-10-01","sub_sector":"Pressurised water reactor 900","tri":38,"_i":38,"combustible":"Multi-oxyde d’uranium et de plutonium","reserve_secondaire_maximale":40,"tranche":"GRAVELINES 4","sous_filiere":"Réacteur à eau pressurisée (REP) 900","code_insee_commune":"59273","_rand":526246,"point_gps_wsg84":"51.012846, 2.139287","region":"HAUTS-DE-FRANCE","code_insee_departement":"59","epci":"CU de Dunkerque","_id":"O0K9g7aLaWBubjdPRcE8_"}},{"type":"Feature","id":"pCufcnRhKzSKvo5uNdy7-","geometry":{"type":"Point","coordinates":[2.139287,51.012846]},"properties":{"perimetre_spatial":"France métropolitaine, sans la Corse ni les iles du ponant","departement":"NORD","unite":"MW","fuel":"Enriched Uranium","commune":"Gravelines","filiere":"Nucléaire","contrat_programme":"CP1","spatial_perimeter":"Metropolitan France, excluding Corsica and the Ponant Islands","puissance_installee":910,"code_insee_epci":"245900428","sector":"Nuclear","puissance_minimum_de_conception":180,"perimetre_juridique":"EDF SA","code_insee_region":"32","centrale":"GRAVELINES","date_de_mise_en_service_industrielle":"1985-01-15","sub_sector":"Pressurised water reactor 900","tri":39,"_i":39,"combustible":"Uranium Enrichi","reserve_secondaire_maximale":40,"tranche":"GRAVELINES 5","sous_filiere":"Réacteur à eau pressurisée (REP) 900","code_insee_commune":"59273","_rand":144384,"point_gps_wsg84":"51.012846, 2.139287","region":"HAUTS-DE-FRANCE","code_insee_departement":"59","epci":"CU de Dunkerque","_id":"pCufcnRhKzSKvo5uNdy7-"}},{"type":"Feature","id":"e1iaDsd-fLKDpnvAfrQO4","geometry":{"type":"Point","coordinates":[2.139287,51.012846]},"properties":{"perimetre_spatial":"France métropolitaine, sans la Corse ni les iles du ponant","departement":"NORD","unite":"MW","fuel":"Multi-oxide of uranium and plutonium","commune":"Gravelines","filiere":"Nucléaire","contrat_programme":"CP1","spatial_perimeter":"Metropolitan France, excluding Corsica and the Ponant Islands","puissance_installee":910,"code_insee_epci":"245900428","sector":"Nuclear","puissance_minimum_de_conception":180,"perimetre_juridique":"EDF SA","code_insee_region":"32","centrale":"GRAVELINES","date_de_mise_en_service_industrielle":"1985-10-25","sub_sector":"Pressurised water reactor 900","tri":40,"_i":40,"combustible":"Multi-oxyde d’uranium et de plutonium","reserve_secondaire_maximale":40,"tranche":"GRAVELINES 6","sous_filiere":"Réacteur à eau pressurisée (REP) 900","code_insee_commune":"59273","_rand":411867,"point_gps_wsg84":"51.012846, 2.139287","region":"HAUTS-DE-FRANCE","code_insee_departement":"59","epci":"CU de Dunkerque","_id":"e1iaDsd-fLKDpnvAfrQO4"}},{"type":"Feature","id":"rdxYYLIva3X6pKfAsjQLH","geometry":{"type":"Point","coordinates":[3.524182,48.514581]},"properties":{"perimetre_spatial":"France métropolitaine, sans la Corse ni les iles du ponant","departement":"AUBE","unite":"MW","fuel":"Enriched Uranium","commune":"Nogent-sur-Seine","filiere":"Nucléaire","contrat_programme":"P'4","spatial_perimeter":"Metropolitan France, excluding Corsica and the Ponant Islands","puissance_installee":1310,"code_insee_epci":"200006716","sector":"Nuclear","puissance_minimum_de_conception":260,"perimetre_juridique":"EDF SA","code_insee_region":"44","centrale":"NOGENT-SUR-SEINE","date_de_mise_en_service_industrielle":"1988-02-24","sub_sector":"Pressurised water reactor 1300","tri":41,"_i":41,"combustible":"Uranium Enrichi","reserve_secondaire_maximale":60,"tranche":"NOGENT 1","sous_filiere":"Réacteur à eau pressurisée (REP) 1300","code_insee_commune":"10268","_rand":700397,"point_gps_wsg84":"48.514581, 3.524182","region":"GRAND EST","code_insee_departement":"10","epci":"CC du Nogentais","_id":"rdxYYLIva3X6pKfAsjQLH"}},{"type":"Feature","id":"Y3fC6c0csrnJiuLONhu2I","geometry":{"type":"Point","coordinates":[3.524182,48.514581]},"properties":{"perimetre_spatial":"France métropolitaine, sans la Corse ni les iles du ponant","departement":"AUBE","unite":"MW","fuel":"Enriched Uranium","commune":"Nogent-sur-Seine","filiere":"Nucléaire","contrat_programme":"P'4","spatial_perimeter":"Metropolitan France, excluding Corsica and the Ponant Islands","puissance_installee":1310,"code_insee_epci":"200006716","sector":"Nuclear","puissance_minimum_de_conception":260,"perimetre_juridique":"EDF SA","code_insee_region":"44","centrale":"NOGENT-SUR-SEINE","date_de_mise_en_service_industrielle":"1989-05-01","sub_sector":"Pressurised water reactor 1300","tri":42,"_i":42,"combustible":"Uranium Enrichi","reserve_secondaire_maximale":60,"tranche":"NOGENT 2","sous_filiere":"Réacteur à eau pressurisée (REP) 1300","code_insee_commune":"10268","_rand":385975,"point_gps_wsg84":"48.514581, 3.524182","region":"GRAND EST","code_insee_departement":"10","epci":"CC du Nogentais","_id":"Y3fC6c0csrnJiuLONhu2I"}},{"type":"Feature","id":"8RZUIYLiNNbPEu3V1BfHD","geometry":{"type":"Point","coordinates":[0.634759,49.858754]},"properties":{"perimetre_spatial":"France métropolitaine, sans la Corse ni les iles du ponant","departement":"SEINE-MARITIME","unite":"MW","fuel":"Enriched Uranium","commune":"Paluel","filiere":"Nucléaire","contrat_programme":"P4","spatial_perimeter":"Metropolitan France, excluding Corsica and the Ponant Islands","puissance_installee":1330,"code_insee_epci":"200069839","sector":"Nuclear","puissance_minimum_de_conception":260,"perimetre_juridique":"EDF SA","code_insee_region":"28","centrale":"PALUEL","date_de_mise_en_service_industrielle":"1985-12-01","sub_sector":"Pressurised water reactor 1300","tri":43,"_i":43,"combustible":"Uranium Enrichi","reserve_secondaire_maximale":60,"tranche":"PALUEL 1","sous_filiere":"Réacteur à eau pressurisée (REP) 1300","code_insee_commune":"76493","_rand":463568,"point_gps_wsg84":"49.858754, 0.634759","region":"NORMANDIE","code_insee_departement":"76","epci":"CC de la Côte d'Albâtre","_id":"8RZUIYLiNNbPEu3V1BfHD"}},{"type":"Feature","id":"DSDC_SOyzb1jJ8TcRSz3O","geometry":{"type":"Point","coordinates":[0.634759,49.858754]},"properties":{"perimetre_spatial":"France métropolitaine, sans la Corse ni les iles du ponant","departement":"SEINE-MARITIME","unite":"MW","fuel":"Enriched Uranium","commune":"Paluel","filiere":"Nucléaire","contrat_programme":"P4","spatial_perimeter":"Metropolitan France, excluding Corsica and the Ponant Islands","puissance_installee":1330,"code_insee_epci":"200069839","sector":"Nuclear","puissance_minimum_de_conception":260,"perimetre_juridique":"EDF SA","code_insee_region":"28","centrale":"PALUEL","date_de_mise_en_service_industrielle":"1985-12-01","sub_sector":"Pressurised water reactor 1300","tri":44,"_i":44,"combustible":"Uranium Enrichi","reserve_secondaire_maximale":60,"tranche":"PALUEL 2","sous_filiere":"Réacteur à eau pressurisée (REP) 1300","code_insee_commune":"76493","_rand":369653,"point_gps_wsg84":"49.858754, 0.634759","region":"NORMANDIE","code_insee_departement":"76","epci":"CC de la Côte d'Albâtre","_id":"DSDC_SOyzb1jJ8TcRSz3O"}},{"type":"Feature","id":"HQh3SEUZY9TjaP1Z8pCIX","geometry":{"type":"Point","coordinates":[0.634759,49.858754]},"properties":{"perimetre_spatial":"France métropolitaine, sans la Corse ni les iles du ponant","departement":"SEINE-MARITIME","unite":"MW","fuel":"Enriched Uranium","commune":"Paluel","filiere":"Nucléaire","contrat_programme":"P4","spatial_perimeter":"Metropolitan France, excluding Corsica and the Ponant Islands","puissance_installee":1330,"code_insee_epci":"200069839","sector":"Nuclear","puissance_minimum_de_conception":260,"perimetre_juridique":"EDF SA","code_insee_region":"28","centrale":"PALUEL","date_de_mise_en_service_industrielle":"1986-02-01","sub_sector":"Pressurised water reactor 1300","tri":45,"_i":45,"combustible":"Uranium Enrichi","reserve_secondaire_maximale":60,"tranche":"PALUEL 3","sous_filiere":"Réacteur à eau pressurisée (REP) 1300","code_insee_commune":"76493","_rand":58544,"point_gps_wsg84":"49.858754, 0.634759","region":"NORMANDIE","code_insee_departement":"76","epci":"CC de la Côte d'Albâtre","_id":"HQh3SEUZY9TjaP1Z8pCIX"}},{"type":"Feature","id":"6vEmJAtNzb7n5ti7lDoO2","geometry":{"type":"Point","coordinates":[0.634759,49.858754]},"properties":{"perimetre_spatial":"France métropolitaine, sans la Corse ni les iles du ponant","departement":"SEINE-MARITIME","unite":"MW","fuel":"Enriched Uranium","commune":"Paluel","filiere":"Nucléaire","contrat_programme":"P4","spatial_perimeter":"Metropolitan France, excluding Corsica and the Ponant Islands","puissance_installee":1330,"code_insee_epci":"200069839","sector":"Nuclear","puissance_minimum_de_conception":260,"perimetre_juridique":"EDF SA","code_insee_region":"28","centrale":"PALUEL","date_de_mise_en_service_industrielle":"1986-06-01","sub_sector":"Pressurised water reactor 1300","tri":46,"_i":46,"combustible":"Uranium Enrichi","reserve_secondaire_maximale":60,"tranche":"PALUEL 4","sous_filiere":"Réacteur à eau pressurisée (REP) 1300","code_insee_commune":"76493","_rand":152191,"point_gps_wsg84":"49.858754, 0.634759","region":"NORMANDIE","code_insee_departement":"76","epci":"CC de la Côte d'Albâtre","_id":"6vEmJAtNzb7n5ti7lDoO2"}},{"type":"Feature","id":"qMHC8FPsW3z1fKXB0D-Ca","geometry":{"type":"Point","coordinates":[1.210236,49.976144]},"properties":{"perimetre_spatial":"France métropolitaine, sans la Corse ni les iles du ponant","departement":"SEINE-MARITIME","unite":"MW","fuel":"Enriched Uranium","commune":"Petit-Caux","filiere":"Nucléaire","contrat_programme":"P'4","spatial_perimeter":"Metropolitan France, excluding Corsica and the Ponant Islands","puissance_installee":1330,"code_insee_epci":"247600729","sector":"Nuclear","puissance_minimum_de_conception":260,"perimetre_juridique":"EDF SA","code_insee_region":"28","centrale":"PENLY","date_de_mise_en_service_industrielle":"1990-12-01","sub_sector":"Pressurised water reactor 1300","tri":47,"_i":47,"combustible":"Uranium Enrichi","reserve_secondaire_maximale":60,"tranche":"PENLY 1","sous_filiere":"Réacteur à eau pressurisée (REP) 1300","code_insee_commune":"76618","_rand":660277,"point_gps_wsg84":"49.976144, 1.210236","region":"NORMANDIE","code_insee_departement":"76","epci":"CC Falaises du Talou","_id":"qMHC8FPsW3z1fKXB0D-Ca"}},{"type":"Feature","id":"RzIkLCqkwoHNBpKsg8tWi","geometry":{"type":"Point","coordinates":[1.210236,49.976144]},"properties":{"perimetre_spatial":"France métropolitaine, sans la Corse ni les iles du ponant","departement":"SEINE-MARITIME","unite":"MW","fuel":"Enriched Uranium","commune":"Petit-Caux","filiere":"Nucléaire","contrat_programme":"P'4","spatial_perimeter":"Metropolitan France, excluding Corsica and the Ponant Islands","puissance_installee":1330,"code_insee_epci":"247600729","sector":"Nuclear","puissance_minimum_de_conception":260,"perimetre_juridique":"EDF SA","code_insee_region":"28","centrale":"PENLY","date_de_mise_en_service_industrielle":"1992-11-01","sub_sector":"Pressurised water reactor 1300","tri":48,"_i":48,"combustible":"Uranium Enrichi","reserve_secondaire_maximale":60,"tranche":"PENLY 2","sous_filiere":"Réacteur à eau pressurisée (REP) 1300","code_insee_commune":"76618","_rand":875720,"point_gps_wsg84":"49.976144, 1.210236","region":"NORMANDIE","code_insee_departement":"76","epci":"CC Falaises du Talou","_id":"RzIkLCqkwoHNBpKsg8tWi"}},{"type":"Feature","id":"ObIBer5dis1e9v0RRpZYq","geometry":{"type":"Point","coordinates":[4.755573,45.405445]},"properties":{"perimetre_spatial":"France métropolitaine, sans la Corse ni les iles du ponant","departement":"ISERE","unite":"MW","fuel":"Enriched Uranium","commune":"Saint-Maurice-l'Exil","filiere":"Nucléaire","contrat_programme":"H4","spatial_perimeter":"Metropolitan France, excluding Corsica and the Ponant Islands","puissance_installee":1335,"code_insee_epci":"200085751","sector":"Nuclear","puissance_minimum_de_conception":260,"perimetre_juridique":"EDF SA","code_insee_region":"84","centrale":"ST-ALBAN-ST-MAURICE","date_de_mise_en_service_industrielle":"1986-05-01","sub_sector":"Pressurised water reactor 1300","tri":49,"_i":49,"combustible":"Uranium Enrichi","reserve_secondaire_maximale":60,"tranche":"ST-ALBAN 1","sous_filiere":"Réacteur à eau pressurisée (REP) 1300","code_insee_commune":"38425","_rand":368766,"point_gps_wsg84":"45.405445, 4.755573","region":"AUVERGNE-RHONE-ALPES","code_insee_departement":"38","epci":"CC d'Entre Bièvre et Rhône","_id":"ObIBer5dis1e9v0RRpZYq"}},{"type":"Feature","id":"BlBHI9FN7mg3Rsvrbt0r1","geometry":{"type":"Point","coordinates":[4.755573,45.405445]},"properties":{"perimetre_spatial":"France métropolitaine, sans la Corse ni les iles du ponant","departement":"ISERE","unite":"MW","fuel":"Enriched Uranium","commune":"Saint-Maurice-l'Exil","filiere":"Nucléaire","contrat_programme":"H4","spatial_perimeter":"Metropolitan France, excluding Corsica and the Ponant Islands","puissance_installee":1335,"code_insee_epci":"200085751","sector":"Nuclear","puissance_minimum_de_conception":260,"perimetre_juridique":"EDF SA","code_insee_region":"84","centrale":"ST-ALBAN-ST-MAURICE","date_de_mise_en_service_industrielle":"1987-03-01","sub_sector":"Pressurised water reactor 1300","tri":50,"_i":50,"combustible":"Uranium Enrichi","reserve_secondaire_maximale":60,"tranche":"ST-ALBAN 2","sous_filiere":"Réacteur à eau pressurisée (REP) 1300","code_insee_commune":"38425","_rand":643272,"point_gps_wsg84":"45.405445, 4.755573","region":"AUVERGNE-RHONE-ALPES","code_insee_departement":"38","epci":"CC d'Entre Bièvre et Rhône","_id":"BlBHI9FN7mg3Rsvrbt0r1"}},{"type":"Feature","id":"eg4bE5WRlFKkxc8tdU6Bc","geometry":{"type":"Point","coordinates":[1.580217,47.720248]},"properties":{"perimetre_spatial":"France métropolitaine, sans la Corse ni les iles du ponant","departement":"LOIR-ET-CHER","unite":"MW","fuel":"Multi-oxide of uranium and plutonium","commune":"Saint-Laurent-Nouan","filiere":"Nucléaire","contrat_programme":"CP2","spatial_perimeter":"Metropolitan France, excluding Corsica and the Ponant Islands","puissance_installee":915,"code_insee_epci":"244100798","sector":"Nuclear","puissance_minimum_de_conception":180,"perimetre_juridique":"EDF SA","code_insee_region":"24","centrale":"ST-LAURENT-DES-EAUX B","date_de_mise_en_service_industrielle":"1983-08-01","sub_sector":"Pressurised water reactor 900","tri":51,"_i":51,"combustible":"Multi-oxyde d’uranium et de plutonium","reserve_secondaire_maximale":40,"tranche":"ST-LAURENT B 1","sous_filiere":"Réacteur à eau pressurisée (REP) 900","code_insee_commune":"41220","_rand":6684,"point_gps_wsg84":"47.720248, 1.580217","region":"CENTRE-VAL DE LOIRE","code_insee_departement":"41","epci":"CC du Grand Chambord","_id":"eg4bE5WRlFKkxc8tdU6Bc"}},{"type":"Feature","id":"22_p-e-d_YIRjasqQ8KNc","geometry":{"type":"Point","coordinates":[1.580217,47.720248]},"properties":{"perimetre_spatial":"France métropolitaine, sans la Corse ni les iles du ponant","departement":"LOIR-ET-CHER","unite":"MW","fuel":"Multi-oxide of uranium and plutonium","commune":"Saint-Laurent-Nouan","filiere":"Nucléaire","contrat_programme":"CP2","spatial_perimeter":"Metropolitan France, excluding Corsica and the Ponant Islands","puissance_installee":915,"code_insee_epci":"244100798","sector":"Nuclear","puissance_minimum_de_conception":180,"perimetre_juridique":"EDF SA","code_insee_region":"24","centrale":"ST-LAURENT-DES-EAUX B","date_de_mise_en_service_industrielle":"1983-08-01","sub_sector":"Pressurised water reactor 900","tri":52,"_i":52,"combustible":"Multi-oxyde d’uranium et de plutonium","reserve_secondaire_maximale":40,"tranche":"ST-LAURENT B 2","sous_filiere":"Réacteur à eau pressurisée (REP) 900","code_insee_commune":"41220","_rand":155317,"point_gps_wsg84":"47.720248, 1.580217","region":"CENTRE-VAL DE LOIRE","code_insee_departement":"41","epci":"CC du Grand Chambord","_id":"22_p-e-d_YIRjasqQ8KNc"}},{"type":"Feature","id":"ScF_JZ5pyzFCilsUd75io","geometry":{"type":"Point","coordinates":[4.731541,44.326355]},"properties":{"perimetre_spatial":"France métropolitaine, sans la Corse ni les iles du ponant","departement":"DROME","unite":"MW","fuel":"Multi-oxide of uranium and plutonium","commune":"Saint-Paul-Trois-Châteaux","filiere":"Nucléaire","contrat_programme":"CP1","spatial_perimeter":"Metropolitan France, excluding Corsica and the Ponant Islands","puissance_installee":915,"code_insee_epci":"200042901","sector":"Nuclear","puissance_minimum_de_conception":180,"perimetre_juridique":"EDF SA","code_insee_region":"84","centrale":"TRICASTIN (LE)","date_de_mise_en_service_industrielle":"1980-12-01","sub_sector":"Pressurised water reactor 900","tri":53,"_i":53,"combustible":"Multi-oxyde d’uranium et de plutonium","reserve_secondaire_maximale":40,"tranche":"TRICASTIN 1","sous_filiere":"Réacteur à eau pressurisée (REP) 900","code_insee_commune":"26324","_rand":793201,"point_gps_wsg84":"44.326355, 4.731541","region":"AUVERGNE-RHONE-ALPES","code_insee_departement":"26","epci":"CC Drôme Sud Provence","_id":"ScF_JZ5pyzFCilsUd75io"}},{"type":"Feature","id":"6ui_DBUmZbjtOXAK02RRV","geometry":{"type":"Point","coordinates":[4.731541,44.326355]},"properties":{"perimetre_spatial":"France métropolitaine, sans la Corse ni les iles du ponant","departement":"DROME","unite":"MW","fuel":"Multi-oxide of uranium and plutonium","commune":"Saint-Paul-Trois-Châteaux","filiere":"Nucléaire","contrat_programme":"CP1","spatial_perimeter":"Metropolitan France, excluding Corsica and the Ponant Islands","puissance_installee":915,"code_insee_epci":"200042901","sector":"Nuclear","puissance_minimum_de_conception":180,"perimetre_juridique":"EDF SA","code_insee_region":"84","centrale":"TRICASTIN (LE)","date_de_mise_en_service_industrielle":"1980-12-01","sub_sector":"Pressurised water reactor 900","tri":54,"_i":54,"combustible":"Multi-oxyde d’uranium et de plutonium","reserve_secondaire_maximale":40,"tranche":"TRICASTIN 2","sous_filiere":"Réacteur à eau pressurisée (REP) 900","code_insee_commune":"26324","_rand":332610,"point_gps_wsg84":"44.326355, 4.731541","region":"AUVERGNE-RHONE-ALPES","code_insee_departement":"26","epci":"CC Drôme Sud Provence","_id":"6ui_DBUmZbjtOXAK02RRV"}},{"type":"Feature","id":"Eef-CVLymN3yeb0H0pB-T","geometry":{"type":"Point","coordinates":[4.731541,44.326355]},"properties":{"perimetre_spatial":"France métropolitaine, sans la Corse ni les iles du ponant","departement":"DROME","unite":"MW","fuel":"Multi-oxide of uranium and plutonium","commune":"Saint-Paul-Trois-Châteaux","filiere":"Nucléaire","contrat_programme":"CP1","spatial_perimeter":"Metropolitan France, excluding Corsica and the Ponant Islands","puissance_installee":915,"code_insee_epci":"200042901","sector":"Nuclear","puissance_minimum_de_conception":180,"perimetre_juridique":"EDF SA","code_insee_region":"84","centrale":"TRICASTIN (LE)","date_de_mise_en_service_industrielle":"1981-05-11","sub_sector":"Pressurised water reactor 900","tri":55,"_i":55,"combustible":"Multi-oxyde d’uranium et de plutonium","reserve_secondaire_maximale":40,"tranche":"TRICASTIN 3","sous_filiere":"Réacteur à eau pressurisée (REP) 900","code_insee_commune":"26324","_rand":311453,"point_gps_wsg84":"44.326355, 4.731541","region":"AUVERGNE-RHONE-ALPES","code_insee_departement":"26","epci":"CC Drôme Sud Provence","_id":"Eef-CVLymN3yeb0H0pB-T"}},{"type":"Feature","id":"1PXfFAY9Y3EEihY4jPBmC","geometry":{"type":"Point","coordinates":[4.731541,44.326355]},"properties":{"perimetre_spatial":"France métropolitaine, sans la Corse ni les iles du ponant","departement":"DROME","unite":"MW","fuel":"Multi-oxide of uranium and plutonium","commune":"Saint-Paul-Trois-Châteaux","filiere":"Nucléaire","contrat_programme":"CP1","spatial_perimeter":"Metropolitan France, excluding Corsica and the Ponant Islands","puissance_installee":915,"code_insee_epci":"200042901","sector":"Nuclear","puissance_minimum_de_conception":180,"perimetre_juridique":"EDF SA","code_insee_region":"84","centrale":"TRICASTIN (LE)","date_de_mise_en_service_industrielle":"1981-11-01","sub_sector":"Pressurised water reactor 900","tri":56,"_i":56,"combustible":"Multi-oxyde d’uranium et de plutonium","reserve_secondaire_maximale":40,"tranche":"TRICASTIN 4","sous_filiere":"Réacteur à eau pressurisée (REP) 900","code_insee_commune":"26324","_rand":783927,"point_gps_wsg84":"44.326355, 4.731541","region":"AUVERGNE-RHONE-ALPES","code_insee_departement":"26","epci":"CC Drôme Sud Provence","_id":"1PXfFAY9Y3EEihY4jPBmC"}}],"bbox":[-1.8833420611917973,44.10575096961111,6.218270938843489,51.01284599862993]}